<?xml version="1.0" encoding="UTF-8"?>
<ndm xmlns:xsi="http://www.w3.org/2001/XMLSchema-instance" xsi:noNamespaceSchemaLocation="https://sanaregistry.org/r/ndmxml_unqualified/ndmxml-2.0.0-master-2.0.xsd">
<omm id="CCSDS_OMM_VERS" version="2.0">
<header><CREATION_DATE/><ORIGINATOR/></header><body><segment><metadata><OBJECT_NAME>ORBCOMM FM20</OBJECT_NAME><OBJECT_ID>1998-046D</OBJECT_ID><CENTER_NAME>EARTH</CENTER_NAME><REF_FRAME>TEME</REF_FRAME><TIME_SYSTEM>UTC</TIME_SYSTEM><MEAN_ELEMENT_THEORY>SGP4</MEAN_ELEMENT_THEORY></metadata><data><meanElements><EPOCH>2024-08-17T20:08:25.566720</EPOCH><MEAN_MOTION>14.35624681</MEAN_MOTION><ECCENTRICITY>.0001461</ECCENTRICITY><INCLINATION>44.9927</INCLINATION><RA_OF_ASC_NODE>176.3199</RA_OF_ASC_NODE><ARG_OF_PERICENTER>320.2367</ARG_OF_PERICENTER><MEAN_ANOMALY>39.8373</MEAN_ANOMALY></meanElements><tleParameters><EPHEMERIS_TYPE>0</EPHEMERIS_TYPE><CLASSIFICATION_TYPE>U</CLASSIFICATION_TYPE><NORAD_CAT_ID>25416</NORAD_CAT_ID><ELEMENT_SET_NO>999</ELEMENT_SET_NO><REV_AT_EPOCH>36064</REV_AT_EPOCH><BSTAR>.15139E-2</BSTAR><MEAN_MOTION_DOT>.4267E-4</MEAN_MOTION_DOT><MEAN_MOTION_DDOT>0</MEAN_MOTION_DDOT></tleParameters></data></segment></body></omm>
<omm id="CCSDS_OMM_VERS" version="2.0">
<header><CREATION_DATE/><ORIGINATOR/></header><body><segment><metadata><OBJECT_NAME>ORBCOMM FM16</OBJECT_NAME><OBJECT_ID>1998-046E</OBJECT_ID><CENTER_NAME>EARTH</CENTER_NAME><REF_FRAME>TEME</REF_FRAME><TIME_SYSTEM>UTC</TIME_SYSTEM><MEAN_ELEMENT_THEORY>SGP4</MEAN_ELEMENT_THEORY></metadata><data><meanElements><EPOCH>2024-08-17T20:44:53.893824</EPOCH><MEAN_MOTION>14.36751690</MEAN_MOTION><ECCENTRICITY>.0003102</ECCENTRICITY><INCLINATION>44.9925</INCLINATION><RA_OF_ASC_NODE>171.1708</RA_OF_ASC_NODE><ARG_OF_PERICENTER>235.6959</ARG_OF_PERICENTER><MEAN_ANOMALY>124.3595</MEAN_ANOMALY></meanElements><tleParameters><EPHEMERIS_TYPE>0</EPHEMERIS_TYPE><CLASSIFICATION_TYPE>U</CLASSIFICATION_TYPE><NORAD_CAT_ID>25417</NORAD_CAT_ID><ELEMENT_SET_NO>999</ELEMENT_SET_NO><REV_AT_EPOCH>36059</REV_AT_EPOCH><BSTAR>.21437E-2</BSTAR><MEAN_MOTION_DOT>.6245E-4</MEAN_MOTION_DOT><MEAN_MOTION_DDOT>0</MEAN_MOTION_DDOT></tleParameters></data></segment></body></omm>
<omm id="CCSDS_OMM_VERS" version="2.0">
<header><CREATION_DATE/><ORIGINATOR/></header><body><segment><metadata><OBJECT_NAME>ORBCOMM FM15</OBJECT_NAME><OBJECT_ID>1998-046F</OBJECT_ID><CENTER_NAME>EARTH</CENTER_NAME><REF_FRAME>TEME</REF_FRAME><TIME_SYSTEM>UTC</TIME_SYSTEM><MEAN_ELEMENT_THEORY>SGP4</MEAN_ELEMENT_THEORY></metadata><data><meanElements><EPOCH>2024-08-17T21:51:03.898656</EPOCH><MEAN_MOTION>14.36451616</MEAN_MOTION><ECCENTRICITY>.0002926</ECCENTRICITY><INCLINATION>44.9957</INCLINATION><RA_OF_ASC_NODE>175.2567</RA_OF_ASC_NODE><ARG_OF_PERICENTER>242.8377</ARG_OF_PERICENTER><MEAN_ANOMALY>117.2173</MEAN_ANOMALY></meanElements><tleParameters><EPHEMERIS_TYPE>0</EPHEMERIS_TYPE><CLASSIFICATION_TYPE>U</CLASSIFICATION_TYPE><NORAD_CAT_ID>25418</NORAD_CAT_ID><ELEMENT_SET_NO>999</ELEMENT_SET_NO><REV_AT_EPOCH>36060</REV_AT_EPOCH><BSTAR>.17611E-2</BSTAR><MEAN_MOTION_DOT>.5073E-4</MEAN_MOTION_DOT><MEAN_MOTION_DDOT>0</MEAN_MOTION_DDOT></tleParameters></data></segment></body></omm>
<omm id="CCSDS_OMM_VERS" version="2.0">
<header><CREATION_DATE/><ORIGINATOR/></header><body><segment><metadata><OBJECT_NAME>ORBCOMM FM14</OBJECT_NAME><OBJECT_ID>1998-046G</OBJECT_ID><CENTER_NAME>EARTH</CENTER_NAME><REF_FRAME>TEME</REF_FRAME><TIME_SYSTEM>UTC</TIME_SYSTEM><MEAN_ELEMENT_THEORY>SGP4</MEAN_ELEMENT_THEORY></metadata><data><meanElements><EPOCH>2024-08-18T04:48:04.321728</EPOCH><MEAN_MOTION>14.36670352</MEAN_MOTION><ECCENTRICITY>.0001599</ECCENTRICITY><INCLINATION>44.9947</INCLINATION><RA_OF_ASC_NODE>172.8476</RA_OF_ASC_NODE><ARG_OF_PERICENTER>248.5552</ARG_OF_PERICENTER><MEAN_ANOMALY>111.5125</MEAN_ANOMALY></meanElements><tleParameters><EPHEMERIS_TYPE>0</EPHEMERIS_TYPE><CLASSIFICATION_TYPE>U</CLASSIFICATION_TYPE><NORAD_CAT_ID>25419</NORAD_CAT_ID><ELEMENT_SET_NO>999</ELEMENT_SET_NO><REV_AT_EPOCH>36082</REV_AT_EPOCH><BSTAR>.16794E-2</BSTAR><MEAN_MOTION_DOT>.4852E-4</MEAN_MOTION_DOT><MEAN_MOTION_DDOT>0</MEAN_MOTION_DDOT></tleParameters></data></segment></body></omm>
<omm id="CCSDS_OMM_VERS" version="2.0">
<header><CREATION_DATE/><ORIGINATOR/></header><body><segment><metadata><OBJECT_NAME>ORBCOMM FM13</OBJECT_NAME><OBJECT_ID>1998-046H</OBJECT_ID><CENTER_NAME>EARTH</CENTER_NAME><REF_FRAME>TEME</REF_FRAME><TIME_SYSTEM>UTC</TIME_SYSTEM><MEAN_ELEMENT_THEORY>SGP4</MEAN_ELEMENT_THEORY></metadata><data><meanElements><EPOCH>2024-08-17T21:09:06.272640</EPOCH><MEAN_MOTION>14.35854665</MEAN_MOTION><ECCENTRICITY>.0003521</ECCENTRICITY><INCLINATION>44.9959</INCLINATION><RA_OF_ASC_NODE>179.8203</RA_OF_ASC_NODE><ARG_OF_PERICENTER>213.4984</ARG_OF_PERICENTER><MEAN_ANOMALY>146.5641</MEAN_ANOMALY></meanElements><tleParameters><EPHEMERIS_TYPE>0</EPHEMERIS_TYPE><CLASSIFICATION_TYPE>U</CLASSIFICATION_TYPE><NORAD_CAT_ID>25420</NORAD_CAT_ID><ELEMENT_SET_NO>999</ELEMENT_SET_NO><REV_AT_EPOCH>35961</REV_AT_EPOCH><BSTAR>.17763E-2</BSTAR><MEAN_MOTION_DOT>.5055E-4</MEAN_MOTION_DOT><MEAN_MOTION_DDOT>0</MEAN_MOTION_DDOT></tleParameters></data></segment></body></omm>
<omm id="CCSDS_OMM_VERS" version="2.0">
<header><CREATION_DATE/><ORIGINATOR/></header><body><segment><metadata><OBJECT_NAME>ORBCOMM FM21</OBJECT_NAME><OBJECT_ID>1998-053A</OBJECT_ID><CENTER_NAME>EARTH</CENTER_NAME><REF_FRAME>TEME</REF_FRAME><TIME_SYSTEM>UTC</TIME_SYSTEM><MEAN_ELEMENT_THEORY>SGP4</MEAN_ELEMENT_THEORY></metadata><data><meanElements><EPOCH>2024-08-17T11:46:22.247328</EPOCH><MEAN_MOTION>14.35734607</MEAN_MOTION><ECCENTRICITY>.0002052</ECCENTRICITY><INCLINATION>45.0072</INCLINATION><RA_OF_ASC_NODE>266.1466</RA_OF_ASC_NODE><ARG_OF_PERICENTER>257.5048</ARG_OF_PERICENTER><MEAN_ANOMALY>102.5570</MEAN_ANOMALY></meanElements><tleParameters><EPHEMERIS_TYPE>0</EPHEMERIS_TYPE><CLASSIFICATION_TYPE>U</CLASSIFICATION_TYPE><NORAD_CAT_ID>25475</NORAD_CAT_ID><ELEMENT_SET_NO>999</ELEMENT_SET_NO><REV_AT_EPOCH>35357</REV_AT_EPOCH><BSTAR>.12196E-2</BSTAR><MEAN_MOTION_DOT>.3417E-4</MEAN_MOTION_DOT><MEAN_MOTION_DDOT>0</MEAN_MOTION_DDOT></tleParameters></data></segment></body></omm>
<omm id="CCSDS_OMM_VERS" version="2.0">
<header><CREATION_DATE/><ORIGINATOR/></header><body><segment><metadata><OBJECT_NAME>ORBCOMM FM22</OBJECT_NAME><OBJECT_ID>1998-053B</OBJECT_ID><CENTER_NAME>EARTH</CENTER_NAME><REF_FRAME>TEME</REF_FRAME><TIME_SYSTEM>UTC</TIME_SYSTEM><MEAN_ELEMENT_THEORY>SGP4</MEAN_ELEMENT_THEORY></metadata><data><meanElements><EPOCH>2024-08-18T02:59:25.499616</EPOCH><MEAN_MOTION>14.36344724</MEAN_MOTION><ECCENTRICITY>.0001629</ECCENTRICITY><INCLINATION>45.0063</INCLINATION><RA_OF_ASC_NODE>259.9999</RA_OF_ASC_NODE><ARG_OF_PERICENTER>214.8307</ARG_OF_PERICENTER><MEAN_ANOMALY>145.2435</MEAN_ANOMALY></meanElements><tleParameters><EPHEMERIS_TYPE>0</EPHEMERIS_TYPE><CLASSIFICATION_TYPE>U</CLASSIFICATION_TYPE><NORAD_CAT_ID>25476</NORAD_CAT_ID><ELEMENT_SET_NO>999</ELEMENT_SET_NO><REV_AT_EPOCH>35402</REV_AT_EPOCH><BSTAR>.15722E-2</BSTAR><MEAN_MOTION_DOT>.4503E-4</MEAN_MOTION_DOT><MEAN_MOTION_DDOT>0</MEAN_MOTION_DDOT></tleParameters></data></segment></body></omm>
<omm id="CCSDS_OMM_VERS" version="2.0">
<header><CREATION_DATE/><ORIGINATOR/></header><body><segment><metadata><OBJECT_NAME>ORBCOMM FM23</OBJECT_NAME><OBJECT_ID>1998-053C</OBJECT_ID><CENTER_NAME>EARTH</CENTER_NAME><REF_FRAME>TEME</REF_FRAME><TIME_SYSTEM>UTC</TIME_SYSTEM><MEAN_ELEMENT_THEORY>SGP4</MEAN_ELEMENT_THEORY></metadata><data><meanElements><EPOCH>2024-08-17T10:42:08.331264</EPOCH><MEAN_MOTION>14.35770979</MEAN_MOTION><ECCENTRICITY>.0001649</ECCENTRICITY><INCLINATION>45.0073</INCLINATION><RA_OF_ASC_NODE>268.7481</RA_OF_ASC_NODE><ARG_OF_PERICENTER>230.0104</ARG_OF_PERICENTER><MEAN_ANOMALY>130.0598</MEAN_ANOMALY></meanElements><tleParameters><EPHEMERIS_TYPE>0</EPHEMERIS_TYPE><CLASSIFICATION_TYPE>U</CLASSIFICATION_TYPE><NORAD_CAT_ID>25477</NORAD_CAT_ID><ELEMENT_SET_NO>999</ELEMENT_SET_NO><REV_AT_EPOCH>35371</REV_AT_EPOCH><BSTAR>.12421E-2</BSTAR><MEAN_MOTION_DOT>.3485E-4</MEAN_MOTION_DOT><MEAN_MOTION_DDOT>0</MEAN_MOTION_DDOT></tleParameters></data></segment></body></omm>

</ndm>
